STARLINK-31668          
1 59580U 24076S   26068.20327655 -.00003044  00000+0 -10115-3 0  9991
2 59580  43.0046  11.2859 0001291 278.2147  81.8559 15.27569780106436
2025-155V               
1 64895U 25155V   26068.85787115  .00013705  00000+0  51002-3 0  9990
2 64895  97.4485  37.2490 0008035 152.8264 207.3397 15.27583301 65579
